[{"OBJECT_NAME":"SL-8 R/B","OBJECT_ID":"1991-006B","EPOCH":"2026-03-29T05:39:42.477984","MEAN_MOTION":13.77497249,"ECCENTRICITY":0.0021819,"INCLINATION":82.9444,"RA_OF_ASC_NODE":155.5141,"ARG_OF_PERICENTER":343.987,"MEAN_ANOMALY":75.6786,"EPHEMERIS_TYPE":0,"CLASSIFICATION_TYPE":"U","NORAD_CAT_ID":21088,"ELEMENT_SET_NO":999,"REV_AT_EPOCH":76676,"BSTAR":8.4796e-5,"MEAN_MOTION_DOT":1.0e-6,"MEAN_MOTION_DDOT":0},{"OBJECT_NAME":"OKEAN-3","OBJECT_ID":"1991-039A","EPOCH":"2026-03-29T02:16:41.469888","MEAN_MOTION":15.04915118,"ECCENTRICITY":0.0012357,"INCLINATION":82.5163,"RA_OF_ASC_NODE":318.0417,"ARG_OF_PERICENTER":265.0921,"MEAN_ANOMALY":94.8895,"EPHEMERIS_TYPE":0,"CLASSIFICATION_TYPE":"U","NORAD_CAT_ID":21397,"ELEMENT_SET_NO":999,"REV_AT_EPOCH":86795,"BSTAR":0.00018696,"MEAN_MOTION_DOT":2.677e-5,"MEAN_MOTION_DDOT":0},{"OBJECT_NAME":"COSMOS 2151","OBJECT_ID":"1991-042A","EPOCH":"2026-03-29T03:50:50.810784","MEAN_MOTION":15.00189311,"ECCENTRICITY":0.0012335,"INCLINATION":82.4946,"RA_OF_ASC_NODE":64.8882,"ARG_OF_PERICENTER":2.1871,"MEAN_ANOMALY":357.9405,"EPHEMERIS_TYPE":0,"CLASSIFICATION_TYPE":"U","NORAD_CAT_ID":21422,"ELEMENT_SET_NO":999,"REV_AT_EPOCH":86611,"BSTAR":0.00023272,"MEAN_MOTION_DOT":2.938e-5,"MEAN_MOTION_DDOT":0},{"OBJECT_NAME":"SL-14 R/B","OBJECT_ID":"1991-042B","EPOCH":"2026-03-29T01:40:48.787968","MEAN_MOTION":14.81848936,"ECCENTRICITY":0.0017235,"INCLINATION":82.4956,"RA_OF_ASC_NODE":202.0127,"ARG_OF_PERICENTER":172.6233,"MEAN_ANOMALY":187.5238,"EPHEMERIS_TYPE":0,"CLASSIFICATION_TYPE":"U","NORAD_CAT_ID":21423,"ELEMENT_SET_NO":999,"REV_AT_EPOCH":85594,"BSTAR":6.3049e-5,"MEAN_MOTION_DOT":5.23e-6,"MEAN_MOTION_DDOT":0},{"OBJECT_NAME":"ERS-1","OBJECT_ID":"1991-050A","EPOCH":"2026-03-29T00:30:40.802976","MEAN_MOTION":14.39463664,"ECCENTRICITY":0.0032696,"INCLINATION":98.7865,"RA_OF_ASC_NODE":106.7409,"ARG_OF_PERICENTER":143.4329,"MEAN_ANOMALY":216.9099,"EPHEMERIS_TYPE":0,"CLASSIFICATION_TYPE":"U","NORAD_CAT_ID":21574,"ELEMENT_SET_NO":999,"REV_AT_EPOCH":81851,"BSTAR":0.00012161,"MEAN_MOTION_DOT":3.35e-6,"MEAN_MOTION_DDOT":0},{"OBJECT_NAME":"ARIANE 40 R/B","OBJECT_ID":"1991-050F","EPOCH":"2026-03-29T03:57:32.264064","MEAN_MOTION":14.42907726,"ECCENTRICITY":0.0003519,"INCLINATION":98.1971,"RA_OF_ASC_NODE":139.6668,"ARG_OF_PERICENTER":36.716,"MEAN_ANOMALY":323.4271,"EPHEMERIS_TYPE":0,"CLASSIFICATION_TYPE":"U","NORAD_CAT_ID":21610,"ELEMENT_SET_NO":999,"REV_AT_EPOCH":82180,"BSTAR":0.00012156,"MEAN_MOTION_DOT":3.65e-6,"MEAN_MOTION_DDOT":0},{"OBJECT_NAME":"INTERCOSMOS 25","OBJECT_ID":"1991-086A","EPOCH":"2026-03-29T01:20:59.478144","MEAN_MOTION":12.12063902,"ECCENTRICITY":0.1486507,"INCLINATION":82.6012,"RA_OF_ASC_NODE":298.3001,"ARG_OF_PERICENTER":75.2059,"MEAN_ANOMALY":300.8528,"EPHEMERIS_TYPE":0,"CLASSIFICATION_TYPE":"U","NORAD_CAT_ID":21819,"ELEMENT_SET_NO":999,"REV_AT_EPOCH":49903,"BSTAR":0.00035245,"MEAN_MOTION_DOT":1.832e-5,"MEAN_MOTION_DDOT":0},{"OBJECT_NAME":"SL-8 R/B","OBJECT_ID":"1992-008B","EPOCH":"2026-03-29T05:34:32.054016","MEAN_MOTION":13.7596953,"ECCENTRICITY":0.0035871,"INCLINATION":82.9231,"RA_OF_ASC_NODE":253.2367,"ARG_OF_PERICENTER":80.6122,"MEAN_ANOMALY":91.1394,"EPHEMERIS_TYPE":0,"CLASSIFICATION_TYPE":"U","NORAD_CAT_ID":21876,"ELEMENT_SET_NO":999,"REV_AT_EPOCH":71210,"BSTAR":-7.0405e-6,"MEAN_MOTION_DOT":9.0e-8,"MEAN_MOTION_DDOT":0},{"OBJECT_NAME":"SL-8 R/B","OBJECT_ID":"1992-020B","EPOCH":"2026-03-29T04:26:17.964960","MEAN_MOTION":13.75550514,"ECCENTRICITY":0.0027781,"INCLINATION":82.9302,"RA_OF_ASC_NODE":139.2867,"ARG_OF_PERICENTER":241.8038,"MEAN_ANOMALY":172.4048,"EPHEMERIS_TYPE":0,"CLASSIFICATION_TYPE":"U","NORAD_CAT_ID":21938,"ELEMENT_SET_NO":999,"REV_AT_EPOCH":70381,"BSTAR":1.9337e-5,"MEAN_MOTION_DOT":3.4e-7,"MEAN_MOTION_DDOT":0},{"OBJECT_NAME":"USA 81","OBJECT_ID":"1992-023A","EPOCH":"2026-03-29T03:34:39.394848","MEAN_MOTION":14.32374104,"ECCENTRICITY":0.0001766,"INCLINATION":85.0047,"RA_OF_ASC_NODE":120.2111,"ARG_OF_PERICENTER":68.0863,"MEAN_ANOMALY":292.0517,"EPHEMERIS_TYPE":0,"CLASSIFICATION_TYPE":"U","NORAD_CAT_ID":21949,"ELEMENT_SET_NO":999,"REV_AT_EPOCH":9757,"BSTAR":6.0974e-5,"MEAN_MOTION_DOT":1.85e-6,"MEAN_MOTION_DDOT":0},{"OBJECT_NAME":"COSMOS 2219","OBJECT_ID":"1992-076A","EPOCH":"2026-03-29T02:46:13.361952","MEAN_MOTION":14.14090705,"ECCENTRICITY":0.0017901,"INCLINATION":71.0622,"RA_OF_ASC_NODE":337.4638,"ARG_OF_PERICENTER":178.4934,"MEAN_ANOMALY":181.6246,"EPHEMERIS_TYPE":0,"CLASSIFICATION_TYPE":"U","NORAD_CAT_ID":22219,"ELEMENT_SET_NO":999,"REV_AT_EPOCH":72112,"BSTAR":-9.9464e-5,"MEAN_MOTION_DOT":-2.37e-6,"MEAN_MOTION_DDOT":0},{"OBJECT_NAME":"SL-16 R/B","OBJECT_ID":"1992-076B","EPOCH":"2026-03-29T04:22:46.081920","MEAN_MOTION":14.1686391,"ECCENTRICITY":0.0010707,"INCLINATION":70.9997,"RA_OF_ASC_NODE":147.3158,"ARG_OF_PERICENTER":59.912,"MEAN_ANOMALY":3.2767,"EPHEMERIS_TYPE":0,"CLASSIFICATION_TYPE":"U","NORAD_CAT_ID":22220,"ELEMENT_SET_NO":999,"REV_AT_EPOCH":72459,"BSTAR":-4.2482e-5,"MEAN_MOTION_DOT":-1.33e-6,"MEAN_MOTION_DDOT":0},{"OBJECT_NAME":"COSMOS 2221","OBJECT_ID":"1992-080A","EPOCH":"2026-03-28T13:31:10.365024","MEAN_MOTION":14.96277668,"ECCENTRICITY":0.0015475,"INCLINATION":82.5006,"RA_OF_ASC_NODE":260.9964,"ARG_OF_PERICENTER":126.224,"MEAN_ANOMALY":234.0415,"EPHEMERIS_TYPE":0,"CLASSIFICATION_TYPE":"U","NORAD_CAT_ID":22236,"ELEMENT_SET_NO":999,"REV_AT_EPOCH":78361,"BSTAR":0.0002299,"MEAN_MOTION_DOT":2.628e-5,"MEAN_MOTION_DDOT":0},{"OBJECT_NAME":"SL-16 R/B","OBJECT_ID":"1992-093B","EPOCH":"2026-03-29T02:28:28.120800","MEAN_MOTION":14.15454721,"ECCENTRICITY":0.0006506,"INCLINATION":71.023,"RA_OF_ASC_NODE":323.5146,"ARG_OF_PERICENTER":274.8622,"MEAN_ANOMALY":85.1758,"EPHEMERIS_TYPE":0,"CLASSIFICATION_TYPE":"U","NORAD_CAT_ID":22285,"ELEMENT_SET_NO":999,"REV_AT_EPOCH":71590,"BSTAR":0.00011828,"MEAN_MOTION_DOT":1.83e-6,"MEAN_MOTION_DDOT":0},{"OBJECT_NAME":"COSMOS 2228","OBJECT_ID":"1992-094A","EPOCH":"2026-03-29T04:02:40.570368","MEAN_MOTION":14.97290607,"ECCENTRICITY":0.0016848,"INCLINATION":82.5185,"RA_OF_ASC_NODE":218.6597,"ARG_OF_PERICENTER":233.637,"MEAN_ANOMALY":126.3298,"EPHEMERIS_TYPE":0,"CLASSIFICATION_TYPE":"U","NORAD_CAT_ID":22286,"ELEMENT_SET_NO":999,"REV_AT_EPOCH":77897,"BSTAR":0.00031871,"MEAN_MOTION_DOT":3.729e-5,"MEAN_MOTION_DDOT":0},{"OBJECT_NAME":"SL-16 R/B","OBJECT_ID":"1993-016B","EPOCH":"2026-03-29T05:11:14.056224","MEAN_MOTION":14.1530557,"ECCENTRICITY":0.0012342,"INCLINATION":71.0077,"RA_OF_ASC_NODE":174.173,"ARG_OF_PERICENTER":288.9182,"MEAN_ANOMALY":71.0602,"EPHEMERIS_TYPE":0,"CLASSIFICATION_TYPE":"U","NORAD_CAT_ID":22566,"ELEMENT_SET_NO":999,"REV_AT_EPOCH":70493,"BSTAR":3.5798e-5,"MEAN_MOTION_DOT":2.2e-7,"MEAN_MOTION_DDOT":0},{"OBJECT_NAME":"COSMOS 2242","OBJECT_ID":"1993-024A","EPOCH":"2026-03-29T03:49:10.354368","MEAN_MOTION":14.96631899,"ECCENTRICITY":0.0015106,"INCLINATION":82.5161,"RA_OF_ASC_NODE":248.0883,"ARG_OF_PERICENTER":237.1718,"MEAN_ANOMALY":122.8051,"EPHEMERIS_TYPE":0,"CLASSIFICATION_TYPE":"U","NORAD_CAT_ID":22626,"ELEMENT_SET_NO":999,"REV_AT_EPOCH":78330,"BSTAR":0.0002387,"MEAN_MOTION_DOT":2.751e-5,"MEAN_MOTION_DDOT":0}]
